{"fetched_at":"2026-03-30T06:02:59Z","count":15439,"tles":[{"name":"STARLINK-31904","line1":"1 59657U 24084D   26087.85625226  .00002478  00000+0  99515-4 0  9992","line2":"2 59657  43.0016 293.6239 0001187 269.1913  90.8803 15.27584476107308","category":"Starlink"}]}